CCSDS_OMM_VERS = 2.0
CREATION_DATE  = 
ORIGINATOR     = 

OBJECT_NAME    = CZ-2C R/B
OBJECT_ID      = 2022-132E
CENTER_NAME    = EARTH
REF_FRAME      = TEME
TIME_SYSTEM    = UTC
MEAN_ELEMENT_THEORY = SGP/SGP4

EPOCH          = 2026-01-17T13:18:33.351552
MEAN_MOTION    = 15.57295392
ECCENTRICITY   = .00167922
INCLINATION    = 97.2944
RA_OF_ASC_NODE = 19.5058
ARG_OF_PERICENTER = 282.5063
MEAN_ANOMALY   = 77.4314

EPHEMERIS_TYPE = 0
CLASSIFICATION_TYPE = U
NORAD_CAT_ID   = 54039
ELEMENT_SET_NO = 999
REV_AT_EPOCH   = 18240
BSTAR          = .3806112E-3
MEAN_MOTION_DOT = .27894E-3
MEAN_MOTION_DDOT = 0

CCSDS_OMM_VERS = 2.0
CREATION_DATE  = 
ORIGINATOR     = 

OBJECT_NAME    = GSLV R/B
OBJECT_ID      = 2022-138AN
CENTER_NAME    = EARTH
REF_FRAME      = TEME
TIME_SYSTEM    = UTC
MEAN_ELEMENT_THEORY = SGP/SGP4

EPOCH          = 2026-01-17T12:03:31.806144
MEAN_MOTION    = 14.96345087
ECCENTRICITY   = .00210105
INCLINATION    = 87.3836
RA_OF_ASC_NODE = 183.4949
ARG_OF_PERICENTER = 343.7431
MEAN_ANOMALY   = 16.3123

EPHEMERIS_TYPE = 0
CLASSIFICATION_TYPE = U
NORAD_CAT_ID   = 54149
ELEMENT_SET_NO = 999
REV_AT_EPOCH   = 17627
BSTAR          = .18433641E-3
MEAN_MOTION_DOT = .2122E-4
MEAN_MOTION_DDOT = 0

CCSDS_OMM_VERS = 2.0
CREATION_DATE  = 
ORIGINATOR     = 

OBJECT_NAME    = XRISM
OBJECT_ID      = 2023-137A
CENTER_NAME    = EARTH
REF_FRAME      = TEME
TIME_SYSTEM    = UTC
MEAN_ELEMENT_THEORY = SGP/SGP4

EPOCH          = 2026-01-16T23:42:33.489504
MEAN_MOTION    = 15.10780998
ECCENTRICITY   = .00080082
INCLINATION    = 31.0017
RA_OF_ASC_NODE = 257.8959
ARG_OF_PERICENTER = 242.2469
MEAN_ANOMALY   = 117.7358

EPHEMERIS_TYPE = 0
CLASSIFICATION_TYPE = U
NORAD_CAT_ID   = 57800
ELEMENT_SET_NO = 999
REV_AT_EPOCH   = 12996
BSTAR          = .24644321E-3
MEAN_MOTION_DOT = .4291E-4
MEAN_MOTION_DDOT = 0

CCSDS_OMM_VERS = 2.0
CREATION_DATE  = 
ORIGINATOR     = 

OBJECT_NAME    = ACS3
OBJECT_ID      = 2024-077B
CENTER_NAME    = EARTH
REF_FRAME      = TEME
TIME_SYSTEM    = UTC
MEAN_ELEMENT_THEORY = SGP/SGP4

EPOCH          = 2026-01-17T11:28:10.767360
MEAN_MOTION    = 13.87219902
ECCENTRICITY   = .00564716
INCLINATION    = 97.2375
RA_OF_ASC_NODE = 330.0951
ARG_OF_PERICENTER = 246.0768
MEAN_ANOMALY   = 113.4473

EPHEMERIS_TYPE = 0
CLASSIFICATION_TYPE = U
NORAD_CAT_ID   = 59588
ELEMENT_SET_NO = 999
REV_AT_EPOCH   = 8709
BSTAR          = .70384719E-2
MEAN_MOTION_DOT = .8351E-4
MEAN_MOTION_DDOT = 0

CCSDS_OMM_VERS = 2.0
CREATION_DATE  = 
ORIGINATOR     = 

OBJECT_NAME    = SZ-21 MODULE
OBJECT_ID      = 2025-246C
CENTER_NAME    = EARTH
REF_FRAME      = TEME
TIME_SYSTEM    = UTC
MEAN_ELEMENT_THEORY = SGP/SGP4

EPOCH          = 2026-01-17T10:28:28.446240
MEAN_MOTION    = 15.64628600
ECCENTRICITY   = .0002482
INCLINATION    = 41.4746
RA_OF_ASC_NODE = 157.9401
ARG_OF_PERICENTER = 190.6884
MEAN_ANOMALY   = 169.3904

EPHEMERIS_TYPE = 0
CLASSIFICATION_TYPE = U
NORAD_CAT_ID   = 66515
ELEMENT_SET_NO = 999
REV_AT_EPOCH   = 1003
BSTAR          = .32679476E-3
MEAN_MOTION_DOT = .32342E-3
MEAN_MOTION_DDOT = 0

