CZ-2C R/B               
1 54039U 22132E   26017.55455268  .00027894  00000+0  38061-3 0  9997
2 54039  97.2944  19.5058 0016792 282.5063  77.4314 15.57295392182406
GSLV R/B                
1 54149U 22138AN  26017.50245146  .00002122  00000+0  18434-3 0  9991
2 54149  87.3836 183.4949 0021010 343.7431  16.3123 14.96345087176273
XRISM                   
1 57800U 23137A   26016.98788761  .00004291  00000+0  24644-3 0  9993
2 57800  31.0017 257.8959 0008008 242.2469 117.7358 15.10780998129961
ACS3                    
1 59588U 24077B   26017.47790240  .00008351  00000+0  70385-2 0  9995
2 59588  97.2375 330.0951 0056471 246.0768 113.4473 13.87219902 87096
SZ-21 MODULE            
1 66515U 25246C   26017.43644035  .00032342  00000+0  32679-3 0  9990
2 66515  41.4746 157.9401 0002482 190.6884 169.3904 15.64628600 10034
